ONEWEB-0230             
1 48769U 21045C   23335.35264979 -.00000207  00000+0 -58462-3 0  9995
2 48769  87.9005  84.1617 0001433  97.7474 262.3819 13.15555023123659
ONEWEB-0237             
1 48770U 21045D   23335.79789487 -.00000058  00000+0 -18710-3 0  9997
2 48770  87.9006  83.9922 0001237 118.5256 241.5999 13.15549337123457
ONEWEB-0235             
1 48771U 21045E   23335.39225091 -.00000601  00000+0 -16304-2 0  9990
2 48771  87.9019  84.1007 0001532 131.3535 228.7728 13.15545137123383
ONEWEB-0242             
1 48772U 21045F   23335.30985225 -.00000079  00000+0 -24444-3 0  9998
2 48772  87.8997  84.1055 0001359 106.2046 253.9234 13.15549411123422
ONEWEB-0241             
1 48773U 21045G   23335.37323044  .00000320  00000+0  81638-3 0  9996
2 48773  87.9008  84.1212 0001584 125.3587 234.7692 13.15551894123348
ONEWEB-0243             
1 48774U 21045H   23335.78521104 -.00000030  00000+0 -11412-3 0  9992
2 48774  87.9010  83.9965 0001103 111.1232 249.0016 13.15547340123420
ONEWEB-0222             
1 48775U 21045J   23334.86303916 -.00000024  00000+0 -97035-4 0  9999
2 48775  87.9000  84.2087 0001385 116.1851 243.9422 13.15549266123336
ONEWEB-0244             
1 48776U 21045K   23335.33840301 -.00000024  00000+0 -97500-4 0  9994
2 48776  87.8996  84.0964 0001290 100.7860 259.3415 13.15548068123967
